<?xml version="1.0" encoding="UTF-8"?>
<kml xmlns="http://www.opengis.net/kml/2.2" xmlns:gx="http://www.google.com/kml/ext/2.2" xmlns:kml="http://www.opengis.net/kml/2.2" xmlns:atom="http://www.w3.org/2005/Atom">
<Document>
	<name>contours.kml</name>
	<StyleMap id="m_ylw-pushpin">
		<Pair>
			<key>normal</key>
			<styleUrl>#s_ylw-pushpin</styleUrl>
		</Pair>
		<Pair>
			<key>highlight</key>
			<styleUrl>#s_ylw-pushpin_hl</styleUrl>
		</Pair>
	</StyleMap>
	<Style id="s_ylw-pushpin">
		<IconStyle>
			<scale>1.1</scale>
			<Icon>
				<href>http://maps.google.com/mapfiles/kml/pushpin/ylw-pushpin.png</href>
			</Icon>
			<hotSpot x="20" y="2" xunits="pixels" yunits="pixels"/>
		</IconStyle>
	</Style>
	<Style id="s_ylw-pushpin_hl">
		<IconStyle>
			<scale>1.3</scale>
			<Icon>
				<href>http://maps.google.com/mapfiles/kml/pushpin/ylw-pushpin.png</href>
			</Icon>
			<hotSpot x="20" y="2" xunits="pixels" yunits="pixels"/>
		</IconStyle>
	</Style>
	<Placemark>
		<name>contours</name>
		<styleUrl>#m_ylw-pushpin</styleUrl>
		<LineString>
			<tessellate>1</tessellate>
			<coordinates>
				79.49085361604398,16.69140556462263,0 79.49098971707754,16.69143373970421,0 79.49113736719045,16.69146183691834,0 79.4912382285987,16.69146831145148,0 79.49136161477873,16.69143425194849,0 79.4915101982979,16.6914384968511,0 79.49160863771495,16.69147364193282,0 79.4916974742376,16.69147224435016,0 79.49178674249445,16.69146679367747,0 79.49193768417832,16.69145954763724,0 79.49179138180342,16.6913636000085,0 79.49157001469253,16.69135225556098,0 79.49138937115288,16.6913715049663,0 79.4911974998457,16.69135048266315,0 79.49101259520096,16.69133732752729,0 79.4908461443048,16.69132053327068,0 79.49085610266165,16.69126864371366,0 79.49097199949462,16.69124796185474,0 79.4913999800423,16.6912594510196,0 79.4908592674681,16.69109809244033,0 79.4909489324442,16.69109047760566,0 79.49106269515119,16.69111610531358,0 79.49112560003199,16.69126847879517,0 79.49123875773866,16.69114799778356,0 79.4914117345846,16.69112513629833,0 79.49159107817856,16.69119018128433,0 79.49177288536565,16.6912080174122,0 79.49165187468336,16.69128322011198,0 79.49175890339285,16.69108092251915,0 79.49163074414277,16.69103418244407,0 79.49087419665972,16.69095910248875,0 79.49112395178368,16.6909584704013,0 79.49134075898066,16.69096315020856,0 79.49137131100591,16.69076196169576,0 79.49159704966213,16.69044428474929,0 79.49162221023145,16.69040366614176,0 79.49164023671429,16.69035468904419,0 79.4916661782019,16.69029800093938,0 79.49094077727733,16.69064407945358,0 79.49113998697571,16.69055982560398,0 79.49117822141073,16.6905600718337,0 79.49120893204567,16.69055995004939,0 79.49124751977483,16.69055924799623,0 79.4913240389301,16.69055961486834,0 79.49165265983986,16.69066404696453,0 79.49186764451123,16.69065516607751,0 79.49212223567207,16.69063646777154,0 79.4920995387552,16.69022958347185,0 79.49205342057027,16.68988993012716,0 79.49150362473621,16.69001210446707,0 79.49160968418997,16.68986340388505,0 79.4920119079664,16.6901617071173,0 79.49222573973597,16.69007802697848,0 79.49232064197781,16.69043266482051,0 79.492670370697,16.69006959173999,0 79.49239305362806,16.69000293917926,0 79.49230232304478,16.68978600360121,0 79.49205360411035,16.68970275297779,0 79.49172835936304,16.6897192533506,0 79.49179257485424,16.68990695653579,0 79.4916889123423,16.69016748408657,0 79.49195894529477,16.69033254781732,0 79.49195454908518,16.69111154125816,0 79.49217306336745,16.6909530462572,0 79.49232999520946,16.69065576246252,0 79.49248058761312,16.69048169381501,0 79.49253643798666,16.69036753882333,0 79.4926154903076,16.69019796160132,0 79.49246378736785,16.69019693463462,0 79.49239523127864,16.69021193629861,0 79.49230440160113,16.6902101296514,0 79.49228115258414,16.69022626876313,0 79.49203467719788,16.69051749006264,0 79.49223815350028,16.69038180298698,0 79.49219478288798,16.69053819888335,0 79.49210533803723,16.6908830840105,0 79.49182106210948,16.69096516392462,0 79.4919053772615,16.69082873467009,0 79.49194833779588,16.69090773128703,0 79.49209898692072,16.69104887749419,0 79.49202668251822,16.69126557043581,0 79.4922862739239,16.69109331436667,0 79.49242551714383,16.69088169340974,0 79.49250779497554,16.69066329801852,0 79.49260447589855,16.69041631735393,0 79.49157483521023,16.69081400142541,0 79.49156876043477,16.69078792797301,0 79.49154894156845,16.69073589173345,0 79.49152921659842,16.69068410204355,0 79.49150849484845,16.69064945271851,0 79.49150299520394,16.69061564506388,0 79.49149698844366,16.69059026428475,0 79.49145589059961,16.6905216775906,0 79.49146282556278,16.69041453213747,0 79.49123474952026,16.69041291491625,0 79.49100932735692,16.69046292672421,0 79.49094973169076,16.69034336094673,0 79.49104746254777,16.69016683820378,0 79.49113007068605,16.69007856199653,0 79.49145934550435,16.69011565279699,0 79.49119986615857,16.69026053310337,0 79.49138446850277,16.68989373976413,0 79.49131215924368,16.69006797002208,0 79.49124410738311,16.68996651282416,0 79.49136220705944,16.69033812147827,0 79.49111643813899,16.69077457519329,0 79.49173418673612,16.69043241613048,0 79.49179851068371,16.69022021968684,0 79.49170659799405,16.69065762000631,0 79.49190826744712,16.68997334148519,0 79.49196008360346,16.68964723189536,0 79.49153415687545,16.68976215637574,0 79.49098434326065,16.69086269309623,0 79.49153078552223,16.69089951929811,0 79.49155379714865,16.69090077883936,0 79.49158452350417,16.69090236314912,0 79.49166933712063,16.6909058891085,0 79.49174641868179,16.69090960466703,0 79.49183147865593,16.69091308082201,0 79.49187108278468,16.690897030185,0 79.49185645332693,16.69087911400664,0 79.49178875040546,16.69084166260572,0 79.49171434383376,16.69079457886493,0 79.49167754401617,16.69076681268592,0 79.49203472877119,16.69070969320268,0 79.4923502887801,16.690772098695,0 79.49217765593509,16.69082299823365,0 79.49187098875859,16.69042888162556,0 79.49171139525734,16.6900384302203,0 79.49204745373149,16.69003317382432,0 79.49190630706835,16.68985530122643,0 79.49184502840303,16.68974483317619,0 79.49183058578501,16.68959081661986,0 79.4920315138525,16.68951939994264,0 79.49218072170797,16.68965894994223,0 79.49221708231309,16.68989382753023,0 
			</coordinates>
		</LineString>
	</Placemark>
</Document>
</kml>
